#dP2018  6 11  0  0  0.00000000      96 __u+U ITR00 FIT  IAC
## 2005  86400.00000000   900.00000000 58280 0.0000000000000
+   86   C01C02C03C04C05C06C07C08C09C10C11C12C13C14E01E02E03
+        E04E05E07E08E09E11E12E14E18E19E24E26E30G01G02G03G04
+        G05G06G07G08G09G10G11G12G13G14G15G16G17G18G19G20G21
+        G22G23G24G25G26G27G28G29G30G31G32J01R01R02R03R04R05
+        R07R08R09R10R11R13R14R15R16R17R18R19R20R21R22R23R24
+        R26  0  0  0  0  0  0  0  0  0  0  0  0  0  0  0  0
++         0  0  0  0  0  0  0  0  0  0  0  0  0  0  0  0  0
++         0  0  0  0  0  0  0  0  0  0  0  0  0  0  0  0  0
++         0  0  0  0  0  0  0  0  0  0  0  0  0  0  0  0  0
++         0  0  0  0  0  0  0  0  0  0  0  0  0  0  0  0  0
++         0  0  0  0  0  0  0  0  0  0  0  0  0  0  0  0  0
++         0  0  0  0  0  0  0  0  0  0  0  0  0  0  0  0  0
%c M  cc GPS ccc cccc cccc cccc cccc ccccc ccccc ccccc ccccc
%c cc cc ccc ccc cccc cccc cccc cccc ccccc ccccc ccccc ccccc
%f  0.0000000  0.000000000  0.00000000000  0.000000000000000
%f  0.0000000  0.000000000  0.00000000000  0.000000000000000
%i    0    0    0    0      0      0      0      0         0
%i    0    0    0    0      0      0      0      0         0
/*                                                          
/*   RSA / INFORMATION & ANALYSIS CENTER (IAC) OF MCC       
/*   ULTRA-RAPID DETERMINATION                              
/* PCV:IGS14_2000 OL/AL:FES2004  NONE     YN ORB:CoN CLK:CoN
*  2018 06 11 21  0  0.00000000
PC01 -32338.493354  27082.287472   -126.497110   -179.771785
PC02   4392.662041  41930.188014   -846.194151    152.842086
PC03 -14763.673598  39461.987768   -786.572510     74.547611
PC04 -39614.201026  14435.594003   -381.813989    -51.489199
PC05  21844.406170  36061.579116   -558.425993    371.592724
PC06 -24014.913985  27782.887326  20707.183888     50.598592
PC07 -13344.349950  37031.546021  15841.687859    112.511879
PC08  -9911.983103  19916.183082 -35748.280377    385.787022
PC09  -9468.557217  27608.060465  30497.628698    -46.472049
PC10  -1735.053492  42327.214238    888.864646   -302.140092
PC11  13839.891051 -12261.428725  20930.201484   -545.721272
PC12  27024.866252  -1398.309613   6678.581799    474.379732
PC13   3347.287685  27645.579729 -31573.482128   -371.856323
PC14  16632.709797 -22441.172722    331.114889    325.470270
PE01  15819.102530  -4616.221401 -24591.874635   -366.086288
PE02 -15809.679054   4663.125961  24581.856113     16.072529
PE03 -26564.561256   9437.123839  -9030.824895    -42.377488
PE04  19357.600464 -20350.896734  -9336.850780    -53.043821
PE05 -18232.211534  -7076.460960 -22207.961970    247.689501
PE07   -732.414363  19400.808457  22361.157101     17.000627
PE08 -19184.818939  20502.246396   9396.260316   6566.125077
PE09    664.764125 -19294.381619 -22419.385355   6765.911090
PE11 -10695.918726 -19788.047212  19221.627457   1053.546599
PE12  10841.973338 -12858.472959  24360.833056   4361.132454
PE14 -23190.883487  -4136.412087   7571.383681   6568.426451
PE18  23185.712170  12809.008388 -17565.454653   6140.020613
PE19  26373.768048  -8116.896478  10731.651271     23.148494
PE24  -3615.798862 -29190.704955   3343.929441   6658.179670
PE26  25211.450344  15180.314332  -3193.687221   5833.170097
PE30  -8665.790527  24006.076161  14981.814294   5766.126723
PG01  20282.581303  10188.150429  13889.869312    -55.449263
PG02 -13572.839861 -22136.671293   6717.734238     88.702212
PG03  15845.536548    272.061553  21286.343641     87.394696
PG04  -7652.815107  25016.246577  -3847.929446     68.443972
PG05  -5376.241349 -20077.621089 -16515.885263     -6.324588
PG06  -1263.711477 -20197.794598  17218.357810    396.790513
PG07  14830.021059  -5221.938614 -21243.255793    176.883096
PG08  21464.100699   6357.913351 -14364.197413   -104.439380
PG09  24640.138872  -8225.667710  -5595.847714    514.585620
PG10 -10821.441265  24057.905485  -2182.113168    187.940617
PG11  24564.870991   8458.744428   4529.311554   -734.078790
PG12 -13640.337038  -5174.075902  21996.677975    327.994793
PG13 -13616.452616 -12638.836188 -19089.454558    -93.577302
PG14  -1408.326194  15431.077602  21858.391602    -97.349483
PG15 -23132.268435  -4298.146398 -12903.505315   -352.792782
PG16   2478.823376  20372.761284 -16776.728022     21.754033
PG17  11940.897170 -14218.786499  19328.807782    -89.207265
PG18  19965.756496  16567.696197   5651.930103     20.460310
PG19   3737.319260 -14679.317928  21542.620216   -429.198873
PG20 -14960.789608  17479.611418 -13356.604749    510.276171
PG21 -11687.174591   9713.566046 -20989.973701   -382.729784
PG22  13560.888410   9562.260311  20987.908777   -422.691148
PG23  26050.825427    324.109686   6523.485490   -216.000021
PG24 -21107.805674 -12468.502393  10453.273190    -51.022755
PG25 -16781.961334  10398.266095  17469.046042   -599.415448
PG26  -3608.442348  25189.732160  -7378.064885   -118.858604
PG27  10177.054061  12764.639287 -21085.970434    366.287468
PG28  13714.852680 -22337.370992  -3813.481718    722.870219
PG29 -25879.599272   4808.096241  -3519.419312    434.135164
PG30   7611.976889 -14877.312070 -20601.648839     63.636758
PG31   2004.172700  20970.563605  15952.849924    115.271313
PG32 -11943.890513  15060.656220  18331.688409   -495.649226
PJ01 -24592.649763  32951.387895  -4801.034731   -223.376517
PR01 -19870.621743  11798.313462 -10808.140497     27.518196
PR02 -14289.952425  19107.840681   8997.186636    314.329237
PR03    -97.387309  14034.720117  21335.588766    134.709863
PR04  14370.743189    352.527898  21098.090965    264.423613
PR05  19935.673067 -13166.667394   8923.287703    -22.901958
PR07   -172.238777 -13815.175373 -21408.993502    -39.814421
PR08 -13944.799089   -897.184376 -21281.017746     22.792253
PR09   1956.854078 -21505.601662 -13511.184216     23.909739
PR10  -6744.639853 -24358.153722   3066.544897     25.925677
PR11 -11924.682194 -12790.759673  18559.894591    -31.035385
PR13  -1373.907459  21573.214067  13531.011955    -11.286348
PR14   6832.068792  24415.947357  -2883.852694     28.097861
PR15  11125.228053  16436.097364 -15960.927221    -11.553250
PR16   9933.769518  -5373.275523 -22902.803987     94.655935
PR17  11267.173333  12721.605854 -19006.076426    139.418175
PR18  23197.387882   9549.739769  -4798.608874    198.921206
PR19  22250.159011   1543.495447  12379.501153    -54.536628
PR20   7457.832674  -8400.131009  22909.884948   -341.274296
PR21 -11669.561691 -12661.972698  18823.849368     12.302313
PR22 -23705.807419  -8804.229992   2756.758564    -50.399059
PR23 -20196.334209   1036.632235 -15552.797645    159.151815
PR24  -6252.015116   8994.949007 -23062.582310   -167.474255
PR26   8075.535340  -8280.783169  22740.660810 999999.999999
EOF
